{
  "57634": {
    "noradId": "57634",
    "tle": [
      "1 57634C 23122C   26127.93381944  .00017931  00000+0  64933-3 0  1275",
      "2 57634  43.0010 106.7641 0001159 262.5453 292.1888 15.27576917    12"
    ]
  },
  "57635": {
    "noradId": "57635",
    "tle": [
      "1 57635C 23122D   26127.95812500  .00018058  00000+0  65402-3 0  1278",
      "2 57635  43.0001 118.0806 0001147 254.5569 257.4504 15.27572145    16"
    ]
  },
  "57636": {
    "noradId": "57636",
    "tle": [
      "1 57636C 23122E   26127.95604167  .00019157  00000+0  69390-3 0  1278",
      "2 57636  43.0003 118.1424 0001073 267.1398 212.1610 15.27567979    19"
    ]
  },
  "57637": {
    "noradId": "57637",
    "tle": [
      "1 57637C 23122F   26127.96159722  .00020380  00000+0  73822-3 0  1277",
      "2 57637  43.0034 117.4379 0001200 262.8756 170.0089 15.27566732    15"
    ]
  },
  "57638": {
    "noradId": "57638",
    "tle": [
      "1 57638C 23122G   26127.97270833  .00006362  00000+0  23058-3 0  1276",
      "2 57638  43.0017 106.3865 0001241 266.8013 184.4959 15.27554959    12"
    ]
  },
  "57639": {
    "noradId": "57639",
    "tle": [
      "1 57639C 23122H   26127.92131944  .00031756  00000+0  11502-2 0  1276",
      "2 57639  43.0012 117.9912 0001597 259.9515 169.6884 15.27563144    11"
    ]
  },
  "57640": {
    "noradId": "57640",
    "tle": [
      "1 57640C 23122J   26127.94006944  .00027162  00000+0  98469-3 0  1275",
      "2 57640  42.9995 118.1293 0001540 262.6950 171.2276 15.27535361    12"
    ]
  },
  "57641": {
    "noradId": "57641",
    "tle": [
      "1 57641C 23122K   26127.95465278  .00022826  00000+0  82668-3 0  1272",
      "2 57641  43.0017 117.3906 0001333 252.0363 177.9530 15.27570319    11"
    ]
  },
  "57642": {
    "noradId": "57642",
    "tle": [
      "1 57642C 23122L   26127.96854167  .00017605  00000+0  63758-3 0  1271",
      "2 57642  43.0039 117.4466 0001228 261.7248 188.1702 15.27574294    11"
    ]
  },
  "57643": {
    "noradId": "57643",
    "tle": [
      "1 57643C 23122M   26127.91715278  .00028653  00000+0  10381-2 0  1274",
      "2 57643  43.0040 117.8359 0001601 254.4664 230.0414 15.27553606    16"
    ]
  },
  "57644": {
    "noradId": "57644",
    "tle": [
      "1 57644C 23122N   26127.96854167  .00019883  00000+0  72008-3 0  1271",
      "2 57644  43.0044 117.5019 0001483 266.5802 162.0733 15.27572750    16"
    ]
  },
  "57645": {
    "noradId": "57645",
    "tle": [
      "1 57645C 23122P   26127.95743056  .00047439  00000+0  17179-2 0  1270",
      "2 57645  43.0043 335.6897 0001696 268.4544   8.8101 15.27560242    12"
    ]
  },
  "57646": {
    "noradId": "57646",
    "tle": [
      "1 57646C 23122Q   26127.94562500  .00030967  00000+0  11215-2 0  1276",
      "2 57646  43.0027 117.4923 0001172 264.4208  94.6762 15.27565414    15"
    ]
  },
  "57647": {
    "noradId": "57647",
    "tle": [
      "1 57647C 23122R   26127.95256944  .00030210  00000+0  10939-2 0  1273",
      "2 57647  43.0040 117.6862 0001483 261.3757  36.9190 15.27571728    14"
    ]
  },
  "57648": {
    "noradId": "57648",
    "tle": [
      "1 57648C 23122S   26127.96784722  .00023497  00000+0  85100-3 0  1277",
      "2 57648  43.0004 117.8357 0001545 256.2177  27.1280 15.27569691    12"
    ]
  },
  "57650": {
    "noradId": "57650",
    "tle": [
      "1 57650C 23122U   26127.94145833  .00026524  00000+0  96107-3 0  1275",
      "2 57650  43.0028 117.7987 0001337 263.9154 311.9307 15.27553088    15"
    ]
  },
  "57651": {
    "noradId": "57651",
    "tle": [
      "1 57651C 23122V   26127.96229167  .00011326  00000+0  41017-3 0  1275",
      "2 57651  43.0005 106.4485 0001367 263.4907 158.7296 15.27577120    10"
    ]
  },
  "57652": {
    "noradId": "57652",
    "tle": [
      "1 57652C 23122W   26127.93104167  .00027838  00000+0  10082-2 0  1277",
      "2 57652  43.0023 117.9882 0001632 254.0082 207.9157 15.27568980    11"
    ]
  },
  "57653": {
    "noradId": "57653",
    "tle": [
      "1 57653C 23122X   26127.90951389  .00026279  00000+0  95255-3 0  1275",
      "2 57653  43.0034 107.4003 0001387 268.6201 286.0174 15.27539895    14"
    ]
  },
  "57663": {
    "noradId": "57663",
    "tle": [
      "1 57663C 23124A   26127.95673611  .00030950  00000+0  10434-2 0  1278",
      "2 57663  53.1599 291.7387 0001249  81.0660 100.5612 15.30168781    11"
    ]
  },
  "57665": {
    "noradId": "57665",
    "tle": [
      "1 57665C 23124C   26127.94840278  .00036559  00000+0  12323-2 0  1274",
      "2 57665  53.1599 291.8161 0001109  74.6645  49.3801 15.30171181    18"
    ]
  },
  "57666": {
    "noradId": "57666",
    "tle": [
      "1 57666C 23124D   26127.91993056  .00000914  00000+0  29174-4 0  1275",
      "2 57666  53.1592 353.3578 0001476 108.5209 231.9726 15.31950860    13"
    ]
  },
  "57667": {
    "noradId": "57667",
    "tle": [
      "1 57667C 23124E   26127.96437500  .00031117  00000+0  10488-2 0  1273",
      "2 57667  53.1578 291.7469 0000779  70.3740  37.1847 15.30174816    11"
    ]
  },
  "57668": {
    "noradId": "57668",
    "tle": [
      "1 57668C 23124F   26127.95604167  .00028938  00000+0  97526-3 0  1274",
      "2 57668  53.1581 291.7555 0001189  78.8535  11.8348 15.30179370    18"
    ]
  },
  "57669": {
    "noradId": "57669",
    "tle": [
      "1 57669C 23124G   26127.91784722  .00043057  00000+0  13849-2 0  1271",
      "2 57669  53.1590 291.8081 0000978  76.8810 157.0877 15.31673328    16"
    ]
  },
  "57670": {
    "noradId": "57670",
    "tle": [
      "1 57670C 23124H   26127.92270833  .00043133  00000+0  14539-2 0  1279",
      "2 57670  53.1581 291.9360 0001148  81.5817 162.1329 15.30166611    19"
    ]
  },
  "57671": {
    "noradId": "57671",
    "tle": [
      "1 57671C 23124J   26127.96090278  .00034187  00000+0  11522-2 0  1275",
      "2 57671  53.1597 291.7064 0001175  82.0040 105.1827 15.30173799    15"
    ]
  },
  "57672": {
    "noradId": "57672",
    "tle": [
      "1 57672C 23124K   26127.92201389  .00038024  00000+0  12817-2 0  1271",
      "2 57672  53.1608 291.8214 0001165  85.6242 334.3637 15.30169716    18"
    ]
  },
  "57673": {
    "noradId": "57673",
    "tle": [
      "1 57673C 23124L   26127.91645833  .00046078  00000+0  15531-2 0  1271",
      "2 57673  53.1592 291.9763 0001082  85.5638 187.5714 15.30165903    15"
    ]
  },
  "57676": {
    "noradId": "57676",
    "tle": [
      "1 57676C 23124P   26127.90812500  .00038314  00000+0  12913-2 0  1275",
      "2 57676  53.1608 291.9212 0001283  82.9985 242.9855 15.30173879    17"
    ]
  },
  "57677": {
    "noradId": "57677",
    "tle": [
      "1 57677C 23124Q   26127.96784722  .00027665  00000+0  93247-3 0  1273",
      "2 57677  53.1582 291.1386 0001033  78.8468  94.8227 15.30175586    10"
    ]
  },
  "57678": {
    "noradId": "57678",
    "tle": [
      "1 57678C 23124R   26127.97201389  .00012877  00000+0  43425-3 0  1270",
      "2 57678  53.1578 278.6886 0001350  77.6015 319.2727 15.30165517    10"
    ]
  },
  "57679": {
    "noradId": "57679",
    "tle": [
      "1 57679C 23124S   26127.97062500  .00025646  00000+0  86438-3 0  1270",
      "2 57679  53.1577 291.2427 0001030  75.0595  55.7501 15.30178155    16"
    ]
  },
  "57680": {
    "noradId": "57680",
    "tle": [
      "1 57680C 23124T   26127.97548611  .00025420  00000+0  85644-3 0  1272",
      "2 57680  53.1602 291.6119 0001334  83.7128 218.6863 15.30190257    12"
    ]
  },
  "57681": {
    "noradId": "57681",
    "tle": [
      "1 57681C 23124U   26127.91090278  .00035630  00000+0  11452-2 0  1277",
      "2 57681  53.1582 291.9055 0000574  88.7898  81.0551 15.31701408    19"
    ]
  },
  "57682": {
    "noradId": "57682",
    "tle": [
      "1 57682C 23124V   26127.94909722  .00044695  00000+0  15053-2 0  1276",
      "2 57682  53.1605 291.7649 0001194  65.8328 108.4777 15.30192658    10"
    ]
  },
  "57683": {
    "noradId": "57683",
    "tle": [
      "1 57683C 23124W   26127.91715278  .00052356  00000+0  17648-2 0  1270",
      "2 57683  53.1595 291.9648 0001284  73.1169 215.4670 15.30161209    14"
    ]
  },
  "57698": {
    "noradId": "57698",
    "tle": [
      "1 57698C 23129A   26127.95951389  .00036642  00000+0  13273-2 0  1270",
      "2 57698  43.0037 143.5502 0001773 257.3704  67.9122 15.27555358    14"
    ]
  },
  "57699": {
    "noradId": "57699",
    "tle": [
      "1 57699C 23129B   26127.94423611  .00029544  00000+0  10701-2 0  1278",
      "2 57699  43.0028 132.0273 0001183 267.7605 199.5633 15.27562361    14"
    ]
  },
  "57700": {
    "noradId": "57700",
    "tle": [
      "1 57700C 23129C   26127.90812500  .00033139  00000+0  12009-2 0  1274",
      "2 57700  43.0004 150.9711 0002115 257.9318   8.3229 15.27544443    14"
    ]
  },
  "57701": {
    "noradId": "57701",
    "tle": [
      "1 57701C 23129D   26127.95604167  .00025409  00000+0  92042-3 0  1275",
      "2 57701  42.9997 143.1140 0001728 268.6388 235.6416 15.27561500    15"
    ]
  },
  "57702": {
    "noradId": "57702",
    "tle": [
      "1 57702C 23129E   26127.94840278  .00025248  00000+0  91460-3 0  1274",
      "2 57702  43.0003 142.9033 0001554 266.6374 301.7238 15.27561303    12"
    ]
  },
  "57703": {
    "noradId": "57703",
    "tle": [
      "1 57703C 23129F   26127.91159722  .00019463  00000+0  70500-3 0  1273",
      "2 57703  43.0000 143.4493 0001522 264.4155 319.7943 15.27566024    11"
    ]
  },
  "57704": {
    "noradId": "57704",
    "tle": [
      "1 57704C 23129G   26127.96576389  .00030835  00000+0  11168-2 0  1271",
      "2 57704  43.0000 142.9055 0001675 258.0069   3.4762 15.27562923    12"
    ]
  },
  "57707": {
    "noradId": "57707",
    "tle": [
      "1 57707C 23129K   26127.95326389  .00067949  00000+0  20661-2 0  1270",
      "2 57707  42.9981 109.1496 0023633 109.0971  10.0281 15.32892698    11"
    ]
  }
}